NORAD_CAT_ID,OBJECT_NAME,OBJECT_TYPE,EPOCH,MEAN_MOTION,ECCENTRICITY,INCLINATION,RA_OF_ASC_NODE,ARG_OF_PERICENTER,MEAN_ANOMALY,BSTAR,MEAN_MOTION_DOT,MEAN_MOTION_DDOT,TLE_LINE0,TLE_LINE1,TLE_LINE2,SEMIMAJOR_AXIS,PERIOD,APOGEE,PERIGEE,DECAYED
52110.0,STARLINK-3687,PAYLOAD,2022-09-25 11:38:50,15.08841564,0.0001749,53.2172,340.8779,52.0491,308.0659,5.4223e-05,5.75e-06,0.0,0 STARLINK-3687,1 52110U 22029Y   22268.48530698  .00000575  00000-0  54223-4 0  9994,2 52110  53.2172 340.8779 0001749  52.0491 308.0659 15.08841564 30388,6917.876,95.437,540.951,538.531,0.0
52110.0,STARLINK-3687,PAYLOAD,2022-09-25 14:49:36,15.08842251,0.0001663,53.2178,340.2836,51.6365,308.4776,4.567e-05,4.39e-06,0.0,0 STARLINK-3687,1 52110U 22029Y   22268.61778658  .00000439  00000-0  45670-4 0  9994,2 52110  53.2178 340.2836 0001663  51.6365 308.4776 15.08842251 30403,6917.874,95.437,540.889,538.5880000000002,0.0
52110.0,STARLINK-3687,PAYLOAD,2022-09-26 06:43:28,15.0883219,0.0001768,53.2169,337.3095,57.0084,303.1077,-1.6564e-05,-5.52e-06,0.0,0 STARLINK-3687,1 52110U 22029Y   22269.28019635 -.00000552  00000-0 -16564-4 0  9999,2 52110  53.2169 337.3095 0001768  57.0084 303.1077 15.08832190 30509,6917.904,95.438,540.992,538.5459999999998,0.0
52110.0,STARLINK-3687,PAYLOAD,2022-09-26 08:18:52,15.08828203,0.0001725,53.2182,337.0129,52.2674,307.8474,-4.3027e-05,-9.73e-06,0.0,0 STARLINK-3687,1 52110U 22029Y   22269.34644032 -.00000973  00000-0 -43027-4 0  9992,2 52110  53.2182 337.0129 0001725  52.2674 307.8474 15.08828203 30517,6917.916,95.438,540.975,538.5880000000002,0.0
52110.0,STARLINK-3687,PAYLOAD,2022-09-26 14:40:25,15.0882688,0.0001686999999999,53.2182,335.8237,50.1743,309.9398,-3.3663e-05,-8.24e-06,0.0,0 STARLINK-3687,1 52110U 22029Y   22269.61140250 -.00000824  00000-0 -33663-4 0  9995,2 52110  53.2182 335.8237 0001687  50.1743 309.9398 15.08826880 30555,6917.92,95.438,540.953,538.618,0.0
52110.0,STARLINK-3687,PAYLOAD,2022-09-26 21:01:57,15.08836989,0.000169,53.2179,334.6341,46.7246,313.3887,-5.444899999999999e-05,-1.154e-05,0.0,0 STARLINK-3687,1 52110U 22029Y   22269.87635766 -.00001154  00000-0 -54449-4 0  9996,2 52110  53.2179 334.6341 0001690  46.7246 313.3887 15.08836989 30594,6917.89,95.438,540.924,538.585,0.0
52110.0,STARLINK-3687,PAYLOAD,2022-09-27 12:55:48,15.08845957,0.0001713,53.218,331.6605,49.205,310.9091,7.685e-05,9.35e-06,0.0,0 STARLINK-3687,1 52110U 22029Y   22270.53875010  .00000935  00000-0  76850-4 0  9993,2 52110  53.2180 331.6605 0001713  49.2050 310.9091 15.08845957 30699,6917.861999999999,95.437,540.9119999999998,538.5419999999998,0.0
52110.0,STARLINK-3687,PAYLOAD,2022-09-28 12:46:33,15.0887217,0.000166,53.2184,327.2002,70.3266,289.7905,-0.00017289,-3.041e-05,0.0,0 STARLINK-3687,1 52110U 22029Y   22271.53233787 -.00003041  00000-0 -17289-3 0  9996,2 52110  53.2184 327.2002 0001660  70.3266 289.7905 15.08872170 30841,6917.781999999997,95.436,540.795,538.499,0.0
52110.0,STARLINK-3687,PAYLOAD,2022-09-29 12:37:23,15.08829353,8.92e-05,53.2176,322.7352,76.7809,283.3283,-0.00020928,-3.616e-05,0.0,0 STARLINK-3687,1 52110U 22029Y   22272.52596726 -.00003616  00000-0 -20928-3 0  9993,2 52110  53.2176 322.7352 0000892  76.7809 283.3283 15.08829353 30999,6917.913000000001,95.438,540.395,539.161,0.0
52110.0,STARLINK-3687,PAYLOAD,2022-09-29 20:34:19,15.08828082,0.000155,53.2174,321.2521,43.5167,316.5947,-0.00014203,-2.547e-05,0.0,0 STARLINK-3687,1 52110U 22029Y   22272.85717010 -.00002547  00000-0 -14203-3 0  9991,2 52110  53.2174 321.2521 0001550  43.5167 316.5947 15.08828082 31041,6917.917,95.438,540.854,538.71,0.0
52110.0,STARLINK-3687,PAYLOAD,2022-09-30 12:28:09,15.08851679,0.0001774999999999,53.2175,318.2786,44.7119,315.4016,7.714600000000001e-05,9.4e-06,0.0,0 STARLINK-3687,1 52110U 22029Y   22273.51955043  .00000940  00000-0  77146-4 0  9994,2 52110  53.2175 318.2786 0001775  44.7119 315.4016 15.08851679 31144,6917.845,95.437,540.938,538.482,0.0
52110.0,STARLINK-3687,PAYLOAD,2022-09-30 20:25:04,15.08848041,0.0001798,53.217,316.7924,46.4686,313.6456,0.00020901,3.041e-05,0.0,0 STARLINK-3687,1 52110U 22029Y   22273.85075109  .00003041  00000-0  20901-3 0  9998,2 52110  53.2170 316.7924 0001798  46.4686 313.6456 15.08848041 31191,6917.856,95.437,540.965,538.477,0.0
52110.0,STARLINK-3687,PAYLOAD,2022-10-01 09:08:12,15.0881082,0.0001742,53.2173,314.4119,53.4146,306.7006,0.00013938,1.929e-05,0.0,0 STARLINK-3687,1 52110U 22029Y   22274.38070585  .00001929  00000-0  13938-3 0  9995,2 52110  53.2173 314.4119 0001742  53.4146 306.7006 15.08810820 31270,6917.97,95.439,541.04,538.629,0.0
52110.0,STARLINK-3687,PAYLOAD,2022-10-01 20:15:54,15.08827606,0.0001828,53.2187,312.3284,57.0405,303.0763,0.00026376,3.911e-05,0.0,0 STARLINK-3687,1 52110U 22029Y   22274.84438058  .00003911  00000-0  26376-3 0  9992,2 52110  53.2187 312.3284 0001828  57.0405 303.0763 15.08827606 31346,6917.918000000002,95.438,541.048,538.519,0.0
52110.0,STARLINK-3687,PAYLOAD,2022-10-02 08:58:59,15.08851654,0.000206,53.2164,309.9527,43.9354,316.1802,0.00054535,8.405e-05,0.0,0 STARLINK-3687,1 52110U 22029Y   22275.37429724  .00008405  00000-0  54535-3 0  9992,2 52110  53.2164 309.9527 0002060  43.9354 316.1802 15.08851654 31427,6917.845,95.437,541.135,538.285,0.0
52110.0,STARLINK-3687,PAYLOAD,2022-10-02 12:09:45,15.08855203,0.0002075,53.2164,309.3576,44.1359,315.9798,0.00077826,0.00012125,0.0,0 STARLINK-3687,1 52110U 22029Y   22275.50677812  .00012125  00000-0  77826-3 0  9992,2 52110  53.2164 309.3576 0002075  44.1359 315.9798 15.08855203 31446,6917.834,95.437,541.134,538.263,0.0
52110.0,STARLINK-3687,PAYLOAD,2022-10-02 13:45:08,15.08848085,0.0002018,53.2162,309.058,44.6844,315.431,0.00054384,8.379999999999999e-05,0.0,0 STARLINK-3687,1 52110U 22029Y   22275.57301931  .00008380  00000-0  54384-3 0  9997,2 52110  53.2162 309.0580 0002018  44.6844 315.4310 15.08848085 31453,6917.856,95.437,541.117,538.325,0.0
52110.0,STARLINK-3687,PAYLOAD,2022-10-03 12:00:31,15.08872273,0.0002131999999999,53.2166,304.8969,40.2964,319.8186,0.0010079,0.00015803,0.0,0 STARLINK-3687,1 52110U 22029Y   22276.50036851  .00015803  00000-0  10079-2 0  9997,2 52110  53.2166 304.8969 0002132  40.2964 319.8186 15.08872273 31593,6917.781999999997,95.436,541.122,538.172,0.0
52110.0,STARLINK-3687,PAYLOAD,2022-10-03 13:35:54,15.08871611,0.0002182,53.2168,304.5991,42.2542,317.8618,0.00089002,0.00013917,0.0,0 STARLINK-3687,1 52110U 22029Y   22276.56660735  .00013917  00000-0  89002-3 0  9994,2 52110  53.2168 304.5991 0002182  42.2542 317.8618 15.08871611 31601,6917.784000000002,95.436,541.158,538.139,0.0
52110.0,STARLINK-3687,PAYLOAD,2022-10-04 02:18:59,15.08875416,0.0001788,53.2167,302.2208,44.3851,315.7284,0.00080502,0.00012559,0.0,0 STARLINK-3687,1 52110U 22029Y   22277.09651873  .00012559  00000-0  80502-3 0  9993,2 52110  53.2167 302.2208 0001788  44.3851 315.7284 15.08875416 31684,6917.772,95.435,540.874,538.4,0.0
52110.0,STARLINK-3687,PAYLOAD,2022-10-04 08:40:31,15.08861556,0.0002021999999999,53.2167,301.032,38.7605,321.3532,0.00020595,2.993e-05,0.0,0 STARLINK-3687,1 52110U 22029Y   22277.36147869  .00002993  00000-0  20595-3 0  9995,2 52110  53.2167 301.0320 0002022  38.7605 321.3532 15.08861556 31726,6917.815,95.436,541.078,538.281,0.0
52110.0,STARLINK-3687,PAYLOAD,2022-10-04 18:12:50,15.08856087,0.0002103,53.2161,299.2458,35.4128,324.7004,5.3955e-05,5.71e-06,0.0,0 STARLINK-3687,1 52110U 22029Y   22277.75891527  .00000571  00000-0  53955-4 0  9992,2 52110  53.2161 299.2458 0002103  35.4128 324.7004 15.08856087 31784,6917.831,95.437,541.151,538.241,0.0
52110.0,STARLINK-3687,PAYLOAD,2022-10-05 05:20:32,15.08845397,0.0002012,53.2164,297.1668,41.4126,318.7018,-0.00014973,-2.671e-05,0.0,0 STARLINK-3687,1 52110U 22029Y   22278.22259870 -.00002671  00000-0 -14973-3 0  9995,2 52110  53.2164 297.1668 0002012  41.4126 318.7018 15.08845397 31859,6917.864000000001,95.437,541.121,538.337,0.0
52110.0,STARLINK-3687,PAYLOAD,2022-10-05 11:42:05,15.08847532,0.0002015,53.2171,295.9771,41.5962,318.5183,-5.5858e-05,-1.177e-05,0.0,0 STARLINK-3687,1 52110U 22029Y   22278.48756213 -.00001177  00000-0 -55858-4 0  9994,2 52110  53.2171 295.9771 0002015  41.5962 318.5183 15.08847532 31898,6917.857,95.437,541.116,538.328,0.0
52110.0,STARLINK-3687,PAYLOAD,2022-10-05 18:03:37,15.088509699999998,0.0002026999999999,53.2171,294.7875,41.4787,318.6359,-4.9139e-05,-1.07e-05,0.0,0 STARLINK-3687,1 52110U 22029Y   22278.75251787 -.00001070  00000-0 -49139-4 0  9997,2 52110  53.2171 294.7875 0002027  41.4787 318.6359 15.08850970 31938,6917.847,95.437,541.114,538.31,0.0
52110.0,STARLINK-3687,PAYLOAD,2022-10-06 11:32:52,15.08841807,0.0002005999999999,53.2181,291.5175,42.1763,317.9383,5.9757e-05,6.63e-06,0.0,0 STARLINK-3687,1 52110U 22029Y   22279.48116007  .00000663  00000-0  59757-4 0  9995,2 52110  53.2181 291.5175 0002006  42.1763 317.9383 15.08841807 32047,6917.875,95.437,541.128,538.352,0.0
52110.0,STARLINK-3687,PAYLOAD,2022-10-06 17:54:25,15.08838239,0.0001994,53.2175,290.3273,42.3103,317.8042,9.1459e-06,-1.43e-06,0.0,0 STARLINK-3687,1 52110U 22029Y   22279.74612357 -.00000143  00000-0  91459-5 0  9993,2 52110  53.2175 290.3273 0001994  42.3103 317.8042 15.08838239 32081,6917.886,95.438,541.13,538.371,0.0
52110.0,STARLINK-3687,PAYLOAD,2022-10-07 09:48:16,15.08835643,0.0002282,53.2177,287.3541,39.4745,320.6413,7.6578e-05,9.31e-06,0.0,0 STARLINK-3687,1 52110U 22029Y   22280.40852533  .00000931  00000-0  76578-4 0  9998,2 52110  53.2177 287.3541 0002282  39.4745 320.6413 15.08835643 32188,6917.894,95.438,541.337,538.18,0.0
52110.0,STARLINK-3687,PAYLOAD,2022-10-07 17:45:11,15.08846094,0.0002085,53.2169,285.8656,39.7848,320.3296,0.00013089,1.796e-05,0.0,0 STARLINK-3687,1 52110U 22029Y   22280.73971649  .00001796  00000-0  13089-3 0  9991,2 52110  53.2169 285.8656 0002085  39.7848 320.3296 15.08846094 32231,6917.861999999999,95.437,541.169,538.284,0.0
